GONETS M 12 (M22)
1 40553U 15020B   20074.82208633 +.00000010 +00000-0 +25124-5 0  9990
2 40553 082.4937 015.3800 0013556 297.3429 062.6285 12.42892098224872